start=new Date('2021-12-07T00:00:00.000Z').valueOf();
sats=[{"MEAN_ANOMALY":"281.6785","REV_AT_EPOCH":"4207","MEAN_MOTION_DDOT":"0.0000000000000","REF_FRAME":"TEME","BSTAR":"0.00013090000000","SEMIMAJOR_AXIS":"6925.372","TLE_LINE2":"2 47865  53.0562  47.8678 0001428  78.4364 281.6785 15.06392455 42070","MEAN_MOTION":"15.06392455","MEAN_ELEMENT_THEORY":"SGP4","ECCENTRICITY":"0.00014280","INCLINATION":"53.0562","COUNTRY_CODE":"US","LAUNCH_DATE":"2021-03-14","OBJECT_TYPE":"PAYLOAD","ELEMENT_SET_NO":"999","EPHEMERIS_TYPE":"0","OBJECT_NAME":"STARLINK-2310","MEAN_MOTION_DOT":"0.00001668","NORAD_CAT_ID":"47865","PERIAPSIS":"546.248","ARG_OF_PERICENTER":"78.4364","DECAY_DATE":null,"CLASSIFICATION_TYPE":"U","TIME_SYSTEM":"UTC","RCS_SIZE":"LARGE","GP_ID":"191234957","APOAPSIS":"548.226","PERIOD":"95.593","SITE":"AFETR","OBJECT_ID":"2021-021F","TLE_LINE1":"1 47865U 21021F   21340.67009683  .00001668  00000-0  13090-3 0  9992","EPOCH":"2021-12-06T16:04:56.366112","FILE":"3234296","CENTER_NAME":"EARTH","RA_OF_ASC_NODE":"47.8678"},{"CENTER_NAME":"EARTH","EPOCH":"2021-12-06T16:10:14.477952","FILE":"3234296","RA_OF_ASC_NODE":"47.8622","PERIOD":"95.592","RCS_SIZE":"LARGE","GP_ID":"191235208","APOAPSIS":"548.260","OBJECT_ID":"2021-021G","SITE":"AFETR","TLE_LINE1":"1 47866U 21021G   21340.67377868 -.00000264  00000-0  11718-5 0  9995","CLASSIFICATION_TYPE":"U","TIME_SYSTEM":"UTC","DECAY_DATE":null,"ARG_OF_PERICENTER":"70.0289","PERIAPSIS":"546.191","OBJECT_NAME":"STARLINK-2320","MEAN_MOTION_DOT":"-0.00000264","NORAD_CAT_ID":"47866","LAUNCH_DATE":"2021-03-14","OBJECT_TYPE":"PAYLOAD","COUNTRY_CODE":"US","INCLINATION":"53.0571","EPHEMERIS_TYPE":"0","ELEMENT_SET_NO":"999","MEAN_MOTION":"15.06396101","TLE_LINE2":"2 47866  53.0571  47.8622 0001494  70.0289 290.0860 15.06396101 42123","MEAN_ELEMENT_THEORY":"SGP4","ECCENTRICITY":"0.00014940","REV_AT_EPOCH":"4212","MEAN_MOTION_DDOT":"0.0000000000000","MEAN_ANOMALY":"290.0860","BSTAR":"0.00000117180000","REF_FRAME":"TEME","SEMIMAJOR_AXIS":"6925.361"},{"BSTAR":"0.00004502600000","REF_FRAME":"TEME","SEMIMAJOR_AXIS":"6925.366","MEAN_MOTION_DDOT":"0.0000000000000","REV_AT_EPOCH":"4204","MEAN_ANOMALY":"294.7237","ECCENTRICITY":"0.00016010","TLE_LINE2":"2 47867  53.0564  38.4802 0001601  65.3919 294.7237 15.06394240 42041","MEAN_MOTION":"15.06394240","MEAN_ELEMENT_THEORY":"SGP4","EPHEMERIS_TYPE":"0","ELEMENT_SET_NO":"999","LAUNCH_DATE":"2021-03-14","OBJECT_TYPE":"PAYLOAD","COUNTRY_CODE":"US","INCLINATION":"53.0564","NORAD_CAT_ID":"47867","OBJECT_NAME":"STARLINK-2321","MEAN_MOTION_DOT":"0.00000389","DECAY_DATE":null,"ARG_OF_PERICENTER":"65.3919","PERIAPSIS":"546.122","CLASSIFICATION_TYPE":"U","TIME_SYSTEM":"UTC","SITE":"AFETR","OBJECT_ID":"2021-021H","TLE_LINE1":"1 47867U 21021H   21340.53463372  .00000389  00000-0  45026-4 0  9992","PERIOD":"95.593","RCS_SIZE":"LARGE","GP_ID":"191206351","APOAPSIS":"548.340","RA_OF_ASC_NODE":"38.4802","CENTER_NAME":"EARTH","EPOCH":"2021-12-06T12:49:52.353408","FILE":"3234035"},{"MEAN_ANOMALY":"315.1617","MEAN_MOTION_DDOT":"0.0000000000000","REV_AT_EPOCH":"4282","REF_FRAME":"TEME","BSTAR":"0.00011394000000","SEMIMAJOR_AXIS":"6925.359","MEAN_MOTION":"15.06396749","TLE_LINE2":"2 47868  53.0545 347.6141 0002289  44.9557 315.1617 15.06396749 42828","MEAN_ELEMENT_THEORY":"SGP4","ECCENTRICITY":"0.00022890","COUNTRY_CODE":"US","INCLINATION":"53.0545","LAUNCH_DATE":"2021-03-14","OBJECT_TYPE":"PAYLOAD","ELEMENT_SET_NO":"999","EPHEMERIS_TYPE":"0","OBJECT_NAME":"STARLINK-2323","MEAN_MOTION_DOT":"0.00001416","NORAD_CAT_ID":"47868","PERIAPSIS":"545.638","ARG_OF_PERICENTER":"44.9557","DECAY_DATE":null,"CLASSIFICATION_TYPE":"U","TIME_SYSTEM":"UTC","RCS_SIZE":"LARGE","GP_ID":"191234707","APOAPSIS":"548.809","PERIOD":"95.592","SITE":"AFETR","OBJECT_ID":"2021-021J","TLE_LINE1":"1 47868U 21021J   21340.72722651  .00001416  00000-0  11394-3 0  9994","EPOCH":"2021-12-06T17:27:12.370464","FILE":"3234296","CENTER_NAME":"EARTH","RA_OF_ASC_NODE":"347.6141"},{"REV_AT_EPOCH":"4161","MEAN_MOTION_DDOT":"0.0000000000000","MEAN_ANOMALY":"302.2996","BSTAR":"0.00000710390000","REF_FRAME":"TEME","SEMIMAJOR_AXIS":"6925.384","MEAN_MOTION":"15.06388381","TLE_LINE2":"2 47869  53.0573  38.5125 0001505  57.8139 302.2996 15.06388381 41613","MEAN_ELEMENT_THEORY":"SGP4","ECCENTRICITY":"0.00015050","LAUNCH_DATE":"2021-03-14","OBJECT_TYPE":"PAYLOAD","COUNTRY_CODE":"US","INCLINATION":"53.0573","EPHEMERIS_TYPE":"0","ELEMENT_SET_NO":"999","OBJECT_NAME":"STARLINK-2324","MEAN_MOTION_DOT":"-0.00000176","NORAD_CAT_ID":"47869","ARG_OF_PERICENTER":"57.8139","DECAY_DATE":null,"PERIAPSIS":"546.207","CLASSIFICATION_TYPE":"U","TIME_SYSTEM":"UTC","PERIOD":"95.593","RCS_SIZE":"LARGE","GP_ID":"191213069","APOAPSIS":"548.291","SITE":"AFETR","OBJECT_ID":"2021-021K","TLE_LINE1":"1 47869U 21021K   21340.53095515 -.00000176  00000-0  71039-5 0  9993","CENTER_NAME":"EARTH","EPOCH":"2021-12-06T12:44:34.524960","FILE":"3234272","RA_OF_ASC_NODE":"38.5125"},{"CLASSIFICATION_TYPE":"U","TIME_SYSTEM":"UTC","DECAY_DATE":null,"ARG_OF_PERICENTER":"75.4461","PERIAPSIS":"546.332","RA_OF_ASC_NODE":"62.5865","CENTER_NAME":"EARTH","EPOCH":"2021-12-06T17:57:03.697344","FILE":"3234296","OBJECT_ID":"2021-021L","SITE":"AFETR","TLE_LINE1":"1 47870U 21021L   21340.74795946  .00000645  00000-0  62177-4 0  9995","PERIOD":"95.593","GP_ID":"191235709","RCS_SIZE":"MEDIUM","APOAPSIS":"548.172","ECCENTRICITY":"0.00013290","MEAN_MOTION":"15.06387443","TLE_LINE2":"2 47870  53.0455  62.5865 0001329  75.4461 284.6675 15.06387443 41660","MEAN_ELEMENT_THEORY":"SGP4","REF_FRAME":"TEME","BSTAR":"0.00006217700000","SEMIMAJOR_AXIS":"6925.387","MEAN_MOTION_DDOT":"0.0000000000000","REV_AT_EPOCH":"4166","MEAN_ANOMALY":"284.6675","NORAD_CAT_ID":"47870","OBJECT_NAME":"STARLINK-2326","MEAN_MOTION_DOT":"0.00000645","EPHEMERIS_TYPE":"0","ELEMENT_SET_NO":"999","LAUNCH_DATE":"2021-03-14","OBJECT_TYPE":"PAYLOAD","INCLINATION":"53.0455","COUNTRY_CODE":"US"},{"SEMIMAJOR_AXIS":"6925.377","BSTAR":"0.00006864700000","REF_FRAME":"TEME","MEAN_ANOMALY":"280.5021","REV_AT_EPOCH":"4210","MEAN_MOTION_DDOT":"0.0000000000000","ECCENTRICITY":"0.00013220","MEAN_ELEMENT_THEORY":"SGP4","MEAN_MOTION":"15.06390653","TLE_LINE2":"2 47871  53.0577  37.9324 0001322  79.6117 280.5021 15.06390653 42106","ELEMENT_SET_NO":"999","EPHEMERIS_TYPE":"0","INCLINATION":"53.0577","COUNTRY_CODE":"US","OBJECT_TYPE":"PAYLOAD","LAUNCH_DATE":"2021-03-14","NORAD_CAT_ID":"47871","MEAN_MOTION_DOT":"0.00000741","OBJECT_NAME":"STARLINK-2327","PERIAPSIS":"546.327","DECAY_DATE":null,"ARG_OF_PERICENTER":"79.6117","TIME_SYSTEM":"UTC","CLASSIFICATION_TYPE":"U","TLE_LINE1":"1 47871U 21021M   21340.65996117  .00000741  00000-0  68647-4 0  9994","OBJECT_ID":"2021-021M","SITE":"AFETR","APOAPSIS":"548.158","RCS_SIZE":"LARGE","GP_ID":"191235459","PERIOD":"95.593","RA_OF_ASC_NODE":"37.9324","FILE":"3234296","EPOCH":"2021-12-06T15:50:20.645088","CENTER_NAME":"EARTH"},{"REF_FRAME":"TEME","BSTAR":"-0.00000626350000","SEMIMAJOR_AXIS":"6925.358","MEAN_MOTION_DDOT":"0.0000000000000","REV_AT_EPOCH":"4269","MEAN_ANOMALY":"261.1901","ECCENTRICITY":"0.00010610","MEAN_MOTION":"15.06396778","TLE_LINE2":"2 47872  53.0647 357.3053 0001061  98.9208 261.1901 15.06396778 42698","MEAN_ELEMENT_THEORY":"SGP4","EPHEMERIS_TYPE":"0","ELEMENT_SET_NO":"999","LAUNCH_DATE":"2021-03-14","OBJECT_TYPE":"PAYLOAD","COUNTRY_CODE":"US","INCLINATION":"53.0647","NORAD_CAT_ID":"47872","OBJECT_NAME":"STARLINK-2328","MEAN_MOTION_DOT":"-0.00000375","DECAY_DATE":null,"ARG_OF_PERICENTER":"98.9208","PERIAPSIS":"546.489","CLASSIFICATION_TYPE":"U","TIME_SYSTEM":"UTC","SITE":"AFETR","OBJECT_ID":"2021-021N","TLE_LINE1":"1 47872U 21021N   21340.78896652 -.00000375  00000-0 -62635-5 0  9999","PERIOD":"95.592","RCS_SIZE":"LARGE","GP_ID":"191234207","APOAPSIS":"547.958","RA_OF_ASC_NODE":"357.3053","CENTER_NAME":"EARTH","EPOCH":"2021-12-06T18:56:06.707328","FILE":"3234296"},{"OBJECT_NAME":"STARLINK-2329","MEAN_MOTION_DOT":"0.00001515","NORAD_CAT_ID":"47873","LAUNCH_DATE":"2021-03-14","OBJECT_TYPE":"PAYLOAD","INCLINATION":"53.0536","COUNTRY_CODE":"US","EPHEMERIS_TYPE":"0","ELEMENT_SET_NO":"999","MEAN_MOTION":"15.06397554","TLE_LINE2":"2 47873  53.0536  38.0054 0001387  55.3079 304.8041 15.06397554 42091","MEAN_ELEMENT_THEORY":"SGP4","ECCENTRICITY":"0.00013870","MEAN_MOTION_DDOT":"0.0000000000000","REV_AT_EPOCH":"4209","MEAN_ANOMALY":"304.8041","REF_FRAME":"TEME","BSTAR":"0.00012060000000","SEMIMAJOR_AXIS":"6925.356","CENTER_NAME":"EARTH","EPOCH":"2021-12-06T15:23:47.721984","FILE":"3234296","RA_OF_ASC_NODE":"38.0054","PERIOD":"95.592","GP_ID":"191234958","RCS_SIZE":"LARGE","APOAPSIS":"548.182","SITE":"AFETR","OBJECT_ID":"2021-021P","TLE_LINE1":"1 47873U 21021P   21340.64152456  .00001515  00000-0  12060-3 0  9992","CLASSIFICATION_TYPE":"U","TIME_SYSTEM":"UTC","DECAY_DATE":null,"ARG_OF_PERICENTER":"55.3079","PERIAPSIS":"546.261"},{"RA_OF_ASC_NODE":"354.4728","EPOCH":"2021-12-06T07:38:40.161696","FILE":"3234035","CENTER_NAME":"EARTH","SITE":"AFETR","OBJECT_ID":"2021-021Q","TLE_LINE1":"1 47874U 21021Q   21340.31852039  .00001875  00000-0  14474-3 0  9991","RCS_SIZE":"LARGE","GP_ID":"191206607","APOAPSIS":"548.212","PERIOD":"95.592","CLASSIFICATION_TYPE":"U","TIME_SYSTEM":"UTC","PERIAPSIS":"546.217","ARG_OF_PERICENTER":"53.9953","DECAY_DATE":null,"NORAD_CAT_ID":"47874","OBJECT_NAME":"STARLINK-2330","MEAN_MOTION_DOT":"0.00001875","ELEMENT_SET_NO":"999","EPHEMERIS_TYPE":"0","INCLINATION":"53.0484","COUNTRY_CODE":"US","LAUNCH_DATE":"2021-03-14","OBJECT_TYPE":"PAYLOAD","ECCENTRICITY":"0.00014400","TLE_LINE2":"2 47874  53.0484 354.4728 0001440  53.9953 306.1169 15.06399644 42685","MEAN_MOTION":"15.06399644","MEAN_ELEMENT_THEORY":"SGP4","BSTAR":"0.00014474000000","REF_FRAME":"TEME","SEMIMAJOR_AXIS":"6925.350","MEAN_ANOMALY":"306.1169","REV_AT_EPOCH":"4268","MEAN_MOTION_DDOT":"0.0000000000000"}];
